TOMORROW-S4             
1 62386U 24247K   26068.53305366  .00012677  00000+0  46927-3 0  9990
2 62386  44.9818 117.9996 0004434 210.4078 149.6548 15.27717249 67702
STARLINK-36463          
1 67315U 26002L   26068.11514926  .00021762  00000+0  79770-3 0  9993
2 67315  43.0035 328.2870 0001551 278.2259  81.8417 15.27591974 11052
